{"type": "Feature", "geometry": {"type": "MultiPolygon", "coordinates": [[[[2060.0, -1990.0], [2060.0, -2000.0], [2020.0, -2000.0], [2020.0, -2010.0], [2000.0, -2010.0], [2000.0, -2030.0], [1990.0, -2030.0], [1990.0, -2200.0], [2000.0, -2200.0], [2000.0, -2220.0], [1990.0, -2220.0], [1990.0, -2320.0], [2000.0, -2320.0], [2000.0, -2430.0], [1990.0, -2430.0], [1990.0, -2440.0], [2000.0, -2440.0], [2000.0, -2460.0], [1990.0, -2460.0], [1990.0, -2470.0], [2000.0, -2470.0], [2000.0, -2480.0], [1990.0, -2480.0], [1990.0, -2490.0], [2000.0, -2490.0], [2000.0, -2500.0], [1990.0, -2500.0], [1990.0, -2770.0], [2000.0, -2770.0], [2000.0, -2810.0], [1990.0, -2810.0], [1990.0, -2940.0], [2000.0, -2940.0], [2000.0, -2990.0], [2010.0, -2990.0], [2010.0, -3000.0], [2030.0, -3000.0], [2030.0, -3010.0], [2970.0, -3010.0], [2970.0, -3000.0], [2990.0, -3000.0], [2990.0, -2990.0], [3000.0, -2990.0], [3000.0, -2960.0], [3010.0, -2960.0], [3010.0, -2640.0], [3020.0, -2640.0], [3020.0, -2630.0], [3010.0, -2630.0], [3010.0, -2020.0], [3000.0, -2020.0], [3000.0, -2010.0], [2990.0, -2010.0], [2990.0, -2000.0], [2940.0, -2000.0], [2940.0, -1990.0], [2930.0, -1990.0], [2930.0, -2000.0], [2920.0, -2000.0], [2920.0, -1990.0], [2910.0, -1990.0], [2910.0, -2000.0], [2900.0, -2000.0], [2900.0, -1990.0], [2610.0, -1990.0], [2610.0, -2000.0], [2600.0, -2000.0], [2600.0, -1990.0], [2550.0, -1990.0], [2550.0, -2000.0], [2490.0, -2000.0], [2490.0, -1990.0], [2330.0, -1990.0], [2330.0, -2000.0], [2310.0, -2000.0], [2310.0, -1990.0], [2300.0, -1990.0], [2300.0, -2000.0], [2270.0, -2000.0], [2270.0, -1990.0], [2230.0, -1990.0], [2230.0, -2000.0], [2160.0, -2000.0], [2160.0, -1990.0], [2060.0, -1990.0]]]]}, "properties": {"class": "oil_spill_candidate"}}